OBJECT_NAME,OBJECT_ID,EPOCH,MEAN_MOTION,ECCENTRICITY,INCLINATION,RA_OF_ASC_NODE,ARG_OF_PERICENTER,MEAN_ANOMALY,EPHEMERIS_TYPE,CLASSIFICATION_TYPE,NORAD_CAT_ID,ELEMENT_SET_NO,REV_AT_EPOCH,BSTAR,MEAN_MOTION_DOT,MEAN_MOTION_DDOT
LEMUR-2-LAILA,2025-276DQ,2026-06-08T03:26:39.188832,15.21171904,.00016213,97.4172,233.1656,147.0958,213.0379,0,U,66776,999,2907,.25886517E-3,.5701E-4,0
LEMUR-2-CELIJO-SB-PK,2025-276DW,2026-06-08T03:55:59.746080,14.99864743,.00088248,97.5276,230.2367,153.9585,206.2085,0,U,66781,999,2127,.43142213E-3,.5294E-4,0
LEMUR-2-FINNIAN,2025-276DX,2026-06-08T03:26:18.116736,15.00262468,.00085382,97.5256,230.4243,116.1119,244.0985,0,U,66782,999,1864,.47697643E-3,.5921E-4,0
LEMUR-2-STARLIGHT,2025-276DY,2026-06-08T03:48:02.107872,14.98948334,.00153528,97.5274,230.1048,153.7795,206.4209,0,U,66783,999,2884,.45215688E-3,.5428E-4,0
LEMUR-2-TARTIFLETTE,2025-276DZ,2026-06-08T03:46:05.295072,14.98972295,.00139387,97.5276,230.1089,159.9634,200.2139,0,U,66784,999,2884,.51669432E-3,.6213E-4,0
LEMUR-2-VUKASIN,2025-276EA,2026-06-08T03:48:10.329696,15.00266763,.00062753,97.5306,230.3853,145.5098,214.6534,0,U,66785,999,2879,.44560095E-3,.5526E-4,0
LEMUR-2-HOTSPUR-TOM,2025-276EB,2026-06-08T03:34:21.782208,14.98847351,.00152897,97.5250,230.0853,155.1823,205.0139,0,U,66786,999,2877,.52769602E-3,.6329E-4,0
LEMUR-2-MYRA,2025-276EC,2026-06-08T04:32:18.329856,15.00122724,.00155049,97.5218,230.3667,171.4392,188.7100,0,U,66787,999,2886,.46983625E-3,.582E-4,0
LEMUR-2 FIKRETDENGIZ,2026-004A,2026-06-07T23:46:36.348672,14.88259665,.00092864,97.8015,157.6907,160.0491,200.1090,0,U,67363,999,2191,.48687451E-3,.4447E-4,0
TWILIGHT-1 OBJECT B,2026-004B,2026-06-07T22:39:35.102592,14.87671670,.0009348,97.8059,157.6640,151.2342,208.9392,0,U,67364,999,2191,.27755908E-3,.2474E-4,0
LEMUR-2-MARIO-SOUSA,2026-004C,2026-06-08T05:51:52.967520,14.88442502,.00088966,97.7994,157.9369,159.6523,200.5050,0,U,67365,999,2196,.40625404E-3,.3718E-4,0
LEMUR-2-SONNENBLUME,2026-004E,2026-06-08T05:47:57.828192,14.88270844,.00084862,97.7983,157.9219,161.3920,198.7608,0,U,67367,999,2196,.28019439E-3,.2536E-4,0
LEMUR-2-WOBLER,2026-004F,2026-06-08T05:40:15.761856,14.88456535,.00088896,97.8041,158.0302,150.9848,209.1865,0,U,67368,999,2196,.37339663E-3,.3414E-4,0
LEMUR-2-GRAM-E-SUE,2026-004H,2026-06-08T05:26:29.276736,14.88432151,.00074911,97.7973,157.9220,161.8794,198.2692,0,U,67370,999,2196,.27137493E-3,.2464E-4,0
LEMUR-2-KATIE,2026-004AA,2026-06-08T05:21:44.792640,14.89991003,.00047272,97.8038,158.3492,111.2443,248.9280,0,U,67387,999,2197,.48689825E-3,.4641E-4,0
LEMUR-2-HCS-BAZUS,2026-004AB,2026-06-08T05:20:27.860352,14.89987091,.00043707,97.8026,158.3303,106.6992,253.4705,0,U,67388,999,2197,.52131128E-3,.4972E-4,0
