LEMUR-2-LAILA           
1 66776U 25276DQ  26159.14350913  .00005701  00000+0  25887-3 0  9998
2 66776  97.4172 233.1656 0001621 147.0958 213.0379 15.21171904 29078
LEMUR-2-CELIJO-SB-PK    
1 66781U 25276DW  26159.16388595  .00005294  00000+0  43142-3 0  9994
2 66781  97.5276 230.2367 0008824 153.9585 206.2085 14.99864743 21277
LEMUR-2-FINNIAN         
1 66782U 25276DX  26159.14326524  .00005921  00000+0  47698-3 0  9994
2 66782  97.5256 230.4243 0008538 116.1119 244.0985 15.00262468 18642
LEMUR-2-STARLIGHT       
1 66783U 25276DY  26159.15835773  .00005428  00000+0  45216-3 0  9993
2 66783  97.5274 230.1048 0015352 153.7795 206.4209 14.98948334 28845
LEMUR-2-TARTIFLETTE     
1 66784U 25276DZ  26159.15700573  .00006213  00000+0  51669-3 0  9995
2 66784  97.5276 230.1089 0013938 159.9634 200.2139 14.98972295 28848
LEMUR-2-VUKASIN         
1 66785U 25276EA  26159.15845289  .00005526  00000+0  44560-3 0  9998
2 66785  97.5306 230.3853 0006275 145.5098 214.6534 15.00266763 28797
LEMUR-2-HOTSPUR-TOM     
1 66786U 25276EB  26159.14886322  .00006329  00000+0  52770-3 0  9995
2 66786  97.5250 230.0853 0015289 155.1823 205.0139 14.98847351 28778
LEMUR-2-MYRA            
1 66787U 25276EC  26159.18910104  .00005820  00000+0  46984-3 0  9991
2 66787  97.5218 230.3667 0015504 171.4392 188.7100 15.00122724 28860
LEMUR-2 FIKRETDENGIZ    
1 67363U 26004A   26158.99069848  .00004447  00000+0  48687-3 0  9996
2 67363  97.8015 157.6907 0009286 160.0491 200.1090 14.88259665 21917
TWILIGHT-1 OBJECT B     
1 67364U 26004B   26158.94415628  .00002474  00000+0  27756-3 0  9995
2 67364  97.8059 157.6640 0009348 151.2342 208.9392 14.87671670 21910
LEMUR-2-MARIO-SOUSA     
1 67365U 26004C   26159.24436305  .00003718  00000+0  40625-3 0  9997
2 67365  97.7994 157.9369 0008896 159.6523 200.5050 14.88442502 21964
LEMUR-2-SONNENBLUME     
1 67367U 26004E   26159.24164153  .00002536  00000+0  28019-3 0  9998
2 67367  97.7983 157.9219 0008486 161.3920 198.7608 14.88270844 21969
LEMUR-2-WOBLER          
1 67368U 26004F   26159.23629354  .00003414  00000+0  37340-3 0  9990
2 67368  97.8041 158.0302 0008889 150.9848 209.1865 14.88456535 21966
LEMUR-2-GRAM-E-SUE      
1 67370U 26004H   26159.22672774  .00002464  00000+0  27137-3 0  9993
2 67370  97.7973 157.9220 0007491 161.8794 198.2692 14.88432151 21962
LEMUR-2-KATIE           
1 67387U 26004AA  26159.22343510  .00004641  00000+0  48690-3 0  9990
2 67387  97.8038 158.3492 0004727 111.2443 248.9280 14.89991003 21972
LEMUR-2-HCS-BAZUS       
1 67388U 26004AB  26159.22254468  .00004972  00000+0  52131-3 0  9996
2 67388  97.8026 158.3303 0004370 106.6992 253.4705 14.89987091 21977
